CCSDS_OMM_VERS = 2.0
CREATION_DATE  = 
ORIGINATOR     = 

OBJECT_NAME    = SL-16 R/B
OBJECT_ID      = 1992-093B
CENTER_NAME    = EARTH
REF_FRAME      = TEME
TIME_SYSTEM    = UTC
MEAN_ELEMENT_THEORY = SGP/SGP4

EPOCH          = 2025-10-30T06:44:58.056864
MEAN_MOTION    = 14.15418004
ECCENTRICITY   = .00035652
INCLINATION    = 71.0201
RA_OF_ASC_NODE = 278.0216
ARG_OF_PERICENTER = 180.8981
MEAN_ANOMALY   = 179.2136

EPHEMERIS_TYPE = 0
CLASSIFICATION_TYPE = U
NORAD_CAT_ID   = 22285
ELEMENT_SET_NO = 999
REV_AT_EPOCH   = 69470
BSTAR          = -.42761936E-4
MEAN_MOTION_DOT = -.131E-5
MEAN_MOTION_DDOT = 0

CCSDS_OMM_VERS = 2.0
CREATION_DATE  = 
ORIGINATOR     = 

OBJECT_NAME    = COSMOS 2228
OBJECT_ID      = 1992-094A
CENTER_NAME    = EARTH
REF_FRAME      = TEME
TIME_SYSTEM    = UTC
MEAN_ELEMENT_THEORY = SGP/SGP4

EPOCH          = 2025-10-30T18:22:47.934912
MEAN_MOTION    = 14.96441651
ECCENTRICITY   = .0018616
INCLINATION    = 82.5208
RA_OF_ASC_NODE = 1.6439
ARG_OF_PERICENTER = 24.1917
MEAN_ANOMALY   = 336.0175

EPHEMERIS_TYPE = 0
CLASSIFICATION_TYPE = U
NORAD_CAT_ID   = 22286
ELEMENT_SET_NO = 999
REV_AT_EPOCH   = 75662
BSTAR          = .27629E-3
MEAN_MOTION_DOT = .3169E-4
MEAN_MOTION_DDOT = 0

CCSDS_OMM_VERS = 2.0
CREATION_DATE  = 
ORIGINATOR     = 

OBJECT_NAME    = SL-16 R/B
OBJECT_ID      = 1993-016B
CENTER_NAME    = EARTH
REF_FRAME      = TEME
TIME_SYSTEM    = UTC
MEAN_ELEMENT_THEORY = SGP/SGP4

EPOCH          = 2025-10-30T05:42:42.496704
MEAN_MOTION    = 14.15279751
ECCENTRICITY   = .00097031
INCLINATION    = 71.0055
RA_OF_ASC_NODE = 129.1674
ARG_OF_PERICENTER = 175.4543
MEAN_ANOMALY   = 184.6670

EPHEMERIS_TYPE = 0
CLASSIFICATION_TYPE = U
NORAD_CAT_ID   = 22566
ELEMENT_SET_NO = 999
REV_AT_EPOCH   = 68371
BSTAR          = -.54559167E-4
MEAN_MOTION_DOT = -.154E-5
MEAN_MOTION_DDOT = 0

CCSDS_OMM_VERS = 2.0
CREATION_DATE  = 
ORIGINATOR     = 

OBJECT_NAME    = COSMOS 2242
OBJECT_ID      = 1993-024A
CENTER_NAME    = EARTH
REF_FRAME      = TEME
TIME_SYSTEM    = UTC
MEAN_ELEMENT_THEORY = SGP/SGP4

EPOCH          = 2025-10-30T16:39:07.746624
MEAN_MOTION    = 14.95840489
ECCENTRICITY   = .0016996
INCLINATION    = 82.5218
RA_OF_ASC_NODE = 30.9719
ARG_OF_PERICENTER = 27.3005
MEAN_ANOMALY   = 332.9106

EPHEMERIS_TYPE = 0
CLASSIFICATION_TYPE = U
NORAD_CAT_ID   = 22626
ELEMENT_SET_NO = 999
REV_AT_EPOCH   = 76095
BSTAR          = .25453E-3
MEAN_MOTION_DOT = .2876E-4
MEAN_MOTION_DDOT = 0

CCSDS_OMM_VERS = 2.0
CREATION_DATE  = 
ORIGINATOR     = 

OBJECT_NAME    = SL-16 R/B
OBJECT_ID      = 1993-059B
CENTER_NAME    = EARTH
REF_FRAME      = TEME
TIME_SYSTEM    = UTC
MEAN_ELEMENT_THEORY = SGP/SGP4

EPOCH          = 2025-10-30T06:04:55.697088
MEAN_MOTION    = 14.17202763
ECCENTRICITY   = .00154319
INCLINATION    = 70.9893
RA_OF_ASC_NODE = 286.1857
ARG_OF_PERICENTER = 42.8106
MEAN_ANOMALY   = 317.4216

EPHEMERIS_TYPE = 0
CLASSIFICATION_TYPE = U
NORAD_CAT_ID   = 22803
ELEMENT_SET_NO = 999
REV_AT_EPOCH   = 66105
BSTAR          = .3734769E-5
MEAN_MOTION_DOT = -.4E-6
MEAN_MOTION_DDOT = 0

CCSDS_OMM_VERS = 2.0
CREATION_DATE  = 
ORIGINATOR     = 

OBJECT_NAME    = ARIANE 40 R/B
OBJECT_ID      = 1993-061H
CENTER_NAME    = EARTH
REF_FRAME      = TEME
TIME_SYSTEM    = UTC
MEAN_ELEMENT_THEORY = SGP/SGP4

EPOCH          = 2025-10-30T04:20:59.762400
MEAN_MOTION    = 14.32760189
ECCENTRICITY   = .00098146
INCLINATION    = 98.5128
RA_OF_ASC_NODE = 9.4932
ARG_OF_PERICENTER = 314.5318
MEAN_ANOMALY   = 45.5064

EPHEMERIS_TYPE = 0
CLASSIFICATION_TYPE = U
NORAD_CAT_ID   = 22830
ELEMENT_SET_NO = 999
REV_AT_EPOCH   = 67541
BSTAR          = .13832361E-3
MEAN_MOTION_DOT = .333E-5
MEAN_MOTION_DDOT = 0

CCSDS_OMM_VERS = 2.0
CREATION_DATE  = 
ORIGINATOR     = 

OBJECT_NAME    = COSMOS 2278
OBJECT_ID      = 1994-023A
CENTER_NAME    = EARTH
REF_FRAME      = TEME
TIME_SYSTEM    = UTC
MEAN_ELEMENT_THEORY = SGP/SGP4

EPOCH          = 2025-10-30T02:39:04.986432
MEAN_MOTION    = 14.14330951
ECCENTRICITY   = .00106792
INCLINATION    = 71.0515
RA_OF_ASC_NODE = 88.2857
ARG_OF_PERICENTER = 236.4960
MEAN_ANOMALY   = 123.5142

EPHEMERIS_TYPE = 0
CLASSIFICATION_TYPE = U
NORAD_CAT_ID   = 23087
ELEMENT_SET_NO = 999
REV_AT_EPOCH   = 62634
BSTAR          = -.12264364E-4
MEAN_MOTION_DOT = -.71E-6
MEAN_MOTION_DDOT = 0

CCSDS_OMM_VERS = 2.0
CREATION_DATE  = 
ORIGINATOR     = 

OBJECT_NAME    = SL-16 R/B
OBJECT_ID      = 1994-023B
CENTER_NAME    = EARTH
REF_FRAME      = TEME
TIME_SYSTEM    = UTC
MEAN_ELEMENT_THEORY = SGP/SGP4

EPOCH          = 2025-10-30T06:53:57.912576
MEAN_MOTION    = 14.14991251
ECCENTRICITY   = .0002283
INCLINATION    = 71.0015
RA_OF_ASC_NODE = 344.7400
ARG_OF_PERICENTER = 181.2013
MEAN_ANOMALY   = 178.9104

EPHEMERIS_TYPE = 0
CLASSIFICATION_TYPE = U
NORAD_CAT_ID   = 23088
ELEMENT_SET_NO = 999
REV_AT_EPOCH   = 62764
BSTAR          = .11604418E-3
MEAN_MOTION_DOT = .177E-5
MEAN_MOTION_DDOT = 0

CCSDS_OMM_VERS = 2.0
CREATION_DATE  = 
ORIGINATOR     = 

OBJECT_NAME    = SL-16 R/B
OBJECT_ID      = 1994-074B
CENTER_NAME    = EARTH
REF_FRAME      = TEME
TIME_SYSTEM    = UTC
MEAN_ELEMENT_THEORY = SGP/SGP4

EPOCH          = 2025-10-30T02:43:20.663040
MEAN_MOTION    = 14.79213376
ECCENTRICITY   = .00052095
INCLINATION    = 97.7263
RA_OF_ASC_NODE = 334.1394
ARG_OF_PERICENTER = 291.5744
MEAN_ANOMALY   = 133.4267

EPHEMERIS_TYPE = 0
CLASSIFICATION_TYPE = U
NORAD_CAT_ID   = 23343
ELEMENT_SET_NO = 999
REV_AT_EPOCH   = 66794
BSTAR          = .95871123E-4
MEAN_MOTION_DOT = .662E-5
MEAN_MOTION_DDOT = 0

CCSDS_OMM_VERS = 2.0
CREATION_DATE  = 
ORIGINATOR     = 

OBJECT_NAME    = SL-16 R/B
OBJECT_ID      = 1994-077B
CENTER_NAME    = EARTH
REF_FRAME      = TEME
TIME_SYSTEM    = UTC
MEAN_ELEMENT_THEORY = SGP/SGP4

EPOCH          = 2025-10-30T05:58:55.331328
MEAN_MOTION    = 14.15538358
ECCENTRICITY   = .00034508
INCLINATION    = 70.9814
RA_OF_ASC_NODE = 266.9040
ARG_OF_PERICENTER = 318.4006
MEAN_ANOMALY   = 41.6853

EPHEMERIS_TYPE = 0
CLASSIFICATION_TYPE = U
NORAD_CAT_ID   = 23405
ELEMENT_SET_NO = 999
REV_AT_EPOCH   = 59777
BSTAR          = -.39614702E-4
MEAN_MOTION_DOT = -.125E-5
MEAN_MOTION_DDOT = 0

CCSDS_OMM_VERS = 2.0
CREATION_DATE  = 
ORIGINATOR     = 

OBJECT_NAME    = ARIANE 40+ R/B
OBJECT_ID      = 1995-021B
CENTER_NAME    = EARTH
REF_FRAME      = TEME
TIME_SYSTEM    = UTC
MEAN_ELEMENT_THEORY = SGP/SGP4

EPOCH          = 2025-10-30T05:32:05.543808
MEAN_MOTION    = 14.39643645
ECCENTRICITY   = .00071096
INCLINATION    = 98.4701
RA_OF_ASC_NODE = 11.3350
ARG_OF_PERICENTER = 164.2988
MEAN_ANOMALY   = 263.9089

EPHEMERIS_TYPE = 0
CLASSIFICATION_TYPE = U
NORAD_CAT_ID   = 23561
ELEMENT_SET_NO = 999
REV_AT_EPOCH   = 60047
BSTAR          = .15543183E-3
MEAN_MOTION_DOT = .442E-5
MEAN_MOTION_DDOT = 0

CCSDS_OMM_VERS = 2.0
CREATION_DATE  = 
ORIGINATOR     = 

OBJECT_NAME    = SL-16 R/B
OBJECT_ID      = 1995-058B
CENTER_NAME    = EARTH
REF_FRAME      = TEME
TIME_SYSTEM    = UTC
MEAN_ELEMENT_THEORY = SGP/SGP4

EPOCH          = 2025-10-30T19:33:47.765088
MEAN_MOTION    = 14.15470295
ECCENTRICITY   = .0014119
INCLINATION    = 71.0197
RA_OF_ASC_NODE = 92.9204
ARG_OF_PERICENTER = 311.1635
MEAN_ANOMALY   = 48.8269

EPHEMERIS_TYPE = 0
CLASSIFICATION_TYPE = U
NORAD_CAT_ID   = 23705
ELEMENT_SET_NO = 999
REV_AT_EPOCH   = 54947
BSTAR          = .19963E-3
MEAN_MOTION_DOT = .343E-5
MEAN_MOTION_DDOT = 0

